CTC1_L_00008016-03
1 59529U 22494VC  26070.40831019  .00000000  00000+0  00000-0 0  9991
2 59529  75.0000 180.0000 0000000   0.0000   0.0000 15.90815360    12
CTC1_L_00008016-04
1 59530U 22904AR  26070.40831019  .00000000  00000+0  00000-0 0  9999
2 59530  75.0000 180.0000 0000000   0.0000  90.0000 15.90815360    13
CTC1_L_00008017-01
1 59531U 24850AM  26070.40831019  .00000000  00000+0  00000-0 0  9992
2 59531  75.0000 192.0000 0000000   0.0000 192.0000 15.90815360    10
CTC1_L_00008017-02
1 59532U 23140IC  26070.40831019  .00000000  00000+0  00000-0 0  9994
2 59532  75.0000 192.0000 0000000   0.0000 282.0000 15.90815360    11
CTC1_L_00008017-03
1 59533U 23137UY  26070.40831019  .00000000  00000+0  00000-0 0  9991
2 59533  75.0000 192.0000 0000000   0.0000  12.0000 15.90815360    13
CTC1_L_00008017-04
1 59534U 23029KW  26070.40831019  .00000000  00000+0  00000-0 0  9992
2 59534  75.0000 192.0000 0000000   0.0000 102.0000 15.90815360    14
CTC1_L_00008018-01
1 59535U 22011D   26070.40831019  .00000000  00000+0  00000-0 0  9993
2 59535  75.0000 204.0000 0000000   0.0000 204.0000 15.90815360    12
CTC1_L_00008018-02
1 59536U 24862HD  26070.40831019  .00000000  00000+0  00000-0 0  9990
2 59536  75.0000 204.0000 0000000   0.0000 294.0000 15.90815360    12
CTC1_L_00008018-03
1 59537U 24536ZD  26070.40831019  .00000000  00000+0  00000-0 0  9999
2 59537  75.0000 204.0000 0000000   0.0000  24.0000 15.90815360    14
CTC1_L_00008018-04
1 59538U 22273KV  26070.40831019  .00000000  00000+0  00000-0 0  9996
2 59538  75.0000 204.0000 0000000   0.0000 114.0000 15.90815360    15
CTC1_L_00008019-01
1 59539U 26483ZW  26070.40831019  .00000000  00000+0  00000-0 0  9994
2 59539  75.0000 216.0000 0000000   0.0000 216.0000 15.90815360    12
CTC1_L_00008019-02
1 59540U 24198AL  26070.40831019  .00000000  00000+0  00000-0 0  9997
2 59540  75.0000 216.0000 0000000   0.0000 306.0000 15.90815360    14
CTC1_L_00008019-03
1 59541U 25428HS  26070.40831019  .00000000  00000+0  00000-0 0  9995
2 59541  75.0000 216.0000 0000000   0.0000  36.0000 15.90815360    15
CTC1_L_00008019-04
1 59542U 26464XL  26070.40831019  .00000000  00000+0  00000-0 0  9997
2 59542  75.0000 216.0000 0000000   0.0000 126.0000 15.90815360    16
CTC1_L_00008020-01
1 59543U 24433YI  26070.40831019  .00000000  00000+0  00000-0 0  9992
2 59543  75.0000 228.0000 0000000   0.0000 228.0000 15.90815360    13
CTC1_L_00008020-02
1 59544U 23650JL  26070.40831019  .00000000  00000+0  00000-0 0  9993
2 59544  75.0000 228.0000 0000000   0.0000 318.0000 15.90815360    14
CTC1_L_00008020-03
1 59545U 23485UM  26070.40831019  .00000000  00000+0  00000-0 0  9990
2 59545  75.0000 228.0000 0000000   0.0000  48.0000 15.90815360    15
CTC1_L_00008020-04
1 59546U 23802KF  26070.40831019  .00000000  00000+0  00000-0 0  9994
2 59546  75.0000 228.0000 0000000   0.0000 138.0000 15.90815360    16
CTC1_L_00008021-01
1 59547U 24130XW  26070.40831019  .00000000  00000+0  00000-0 0  9990
2 59547  75.0000 240.0000 0000000   0.0000 240.0000 15.90815360    15
CTC1_L_00008021-02
1 59548U 24140XF  26070.40831019  .00000000  00000+0  00000-0 0  9992
2 59548  75.0000 240.0000 0000000   0.0000 330.0000 15.90815360    16
CTC1_L_00008021-03
1 59549U 24170LQ  26070.40831019  .00000000  00000+0  00000-0 0  9996
2 59549  75.0000 240.0000 0000000   0.0000  60.0000 15.90815360    17
CTC1_L_00008021-04
1 59550U 24110BO  26070.40831019  .00000000  00000+0  00000-0 0  9992
2 59550  75.0000 240.0000 0000000   0.0000 150.0000 15.90815360    19
CTC1_L_00008022-01
1 59551U 22848PL  26070.40831019  .00000000  00000+0  00000-0 0  9999
2 59551  75.0000 252.0000 0000000   0.0000 252.0000 15.90815360    16
CTC1_L_00008022-02
1 59552U 23372NL  26070.40831019  .00000000  00000+0  00000-0 0  9993
2 59552  75.0000 252.0000 0000000   0.0000 342.0000 15.90815360    17
CTC1_L_00008022-03
1 59553U 22705MQ  26070.40831019  .00000000  00000+0  00000-0 0  9993
2 59553  75.0000 252.0000 0000000   0.0000  72.0000 15.90815360    18
CTC1_L_00008022-04
1 59554U 22532EH  26070.40831019  .00000000  00000+0  00000-0 0  9992
2 59554  75.0000 252.0000 0000000   0.0000 162.0000 15.90815360    19
CTC1_L_00008023-01
1 59555U 22255EW  26070.40831019  .00000000  00000+0  00000-0 0  9995
2 59555  75.0000 264.0000 0000000   0.0000 264.0000 15.90815360    16
CTC1_L_00008023-02
1 59556U 25951QE  26070.40831019  .00000000  00000+0  00000-0 0  9992
2 59556  75.0000 264.0000 0000000   0.0000 354.0000 15.90815360    17
CTC1_L_00008023-03
1 59557U 22529OT  26070.40831019  .00000000  00000+0  00000-0 0  9991
2 59557  75.0000 264.0000 0000000   0.0000  84.0000 15.90815360    18
CTC1_L_00008023-04
1 59558U 24153PT  26070.40831019  .00000000  00000+0  00000-0 0  9997
2 59558  75.0000 264.0000 0000000   0.0000 174.0000 15.90815360    19
CTC1_L_00008024-01
1 59559U 24551FW  26070.40831019  .00000000  00000+0  00000-0 0  9990
2 59559  75.0000 276.0000 0000000   0.0000 276.0000 15.90815360    16
CTC1_L_00008024-02
1 59560U 22048TE  26070.40831019  .00000000  00000+0  00000-0 0  9991
2 59560  75.0000 276.0000 0000000   0.0000   6.0000 15.90815360    19
CTC1_L_00008024-03
1 59561U 26823CR  26070.40831019  .00000000  00000+0  00000-0 0  9997
2 59561  75.0000 276.0000 0000000   0.0000  96.0000 15.90815360    19
CTC1_L_00008024-04
1 59562U 26976EK  26070.40831019  .00000000  00000+0  00000-0 0  9997
2 59562  75.0000 276.0000 0000000   0.0000 186.0000 15.90815360    10
CTC1_L_00008025-01
1 59563U 23329WT  26070.40831019  .00000000  00000+0  00000-0 0  9997
2 59563  75.0000 288.0000 0000000   0.0000 288.0000 15.90815360    17
CTC1_L_00008025-02
1 59564U 25417IQ  26070.40831019  .00000000  00000+0  00000-0 0  9998
2 59564  75.0000 288.0000 0000000   0.0000  18.0000 15.90815360    19
CTC1_L_00008025-03
1 59565U 25316WA  26070.40831019  .00000000  00000+0  00000-0 0  9997
2 59565  75.0000 288.0000 0000000   0.0000 108.0000 15.90815360    10
CTC1_L_00008025-04
1 59566U 26530EW  26070.40831019  .00000000  00000+0  00000-0 0  9997
2 59566  75.0000 288.0000 0000000   0.0000 198.0000 15.90815360    10
CTC1_L_00008026-01
1 59567U 24847QX  26070.40831019  .00000000  00000+0  00000-0 0  9997
2 59567  75.0000 300.0000 0000000   0.0000 300.0000 15.90815360    11
CTC1_L_00008026-02
1 59568U 24015ZI  26070.40831019  .00000000  00000+0  00000-0 0  9995
2 59568  75.0000 300.0000 0000000   0.0000  30.0000 15.90815360    12
CTC1_L_00008026-03
1 59569U 24232XA  26070.40831019  .00000000  00000+0  00000-0 0  9997
2 59569  75.0000 300.0000 0000000   0.0000 120.0000 15.90815360    13
CTC1_L_00008026-04
1 59570U 24514AR  26070.40831019  .00000000  00000+0  00000-0 0  9992
2 59570  75.0000 300.0000 0000000   0.0000 210.0000 15.90815360    15
CTC1_L_00008027-01
1 59571U 26021VZ  26070.40831019  .00000000  00000+0  00000-0 0  9998
2 59571  75.0000 312.0000 0000000   0.0000 312.0000 15.90815360    12
CTC1_L_00008027-02
1 59572U 24775QI  26070.40831019  .00000000  00000+0  00000-0 0  9993
2 59572  75.0000 312.0000 0000000   0.0000  42.0000 15.90815360    13
CTC1_L_00008027-03
1 59573U 24225KH  26070.40831019  .00000000  00000+0  00000-0 0  9994
2 59573  75.0000 312.0000 0000000   0.0000 132.0000 15.90815360    14
CTC1_L_00008027-04
1 59574U 23111P   26070.40831019  .00000000  00000+0  00000-0 0  9998
2 59574  75.0000 312.0000 0000000   0.0000 222.0000 15.90815360    15
CTC1_L_00008028-01
1 59575U 22300YG  26070.40831019  .00000000  00000+0  00000-0 0  9998
2 59575  75.0000 324.0000 0000000   0.0000 324.0000 15.90815360    12
CTC1_L_00008028-02
1 59576U 23521P   26070.40831019  .00000000  00000+0  00000-0 0  9995
2 59576  75.0000 324.0000 0000000   0.0000  54.0000 15.90815360    13
CTC1_L_00008028-03
1 59577U 26430M   26070.40831019  .00000000  00000+0  00000-0 0  9998
2 59577  75.0000 324.0000 0000000   0.0000 144.0000 15.90815360    14
CTC1_L_00008028-04
1 59578U 24850CA  26070.40831019  .00000000  00000+0  00000-0 0  9993
2 59578  75.0000 324.0000 0000000   0.0000 234.0000 15.90815360    15
CTC1_L_00008029-01
1 59579U 25744RW  26070.40831019  .00000000  00000+0  00000-0 0  9997
2 59579  75.0000 336.0000 0000000   0.0000 336.0000 15.90815360    12
CTC1_L_00008029-02
1 59580U 23983QO  26070.40831019  .00000000  00000+0  00000-0 0  9992
2 59580  75.0000 336.0000 0000000   0.0000  66.0000 15.90815360    14
CTC1_L_00008029-03
1 59581U 26402HO  26070.40831019  .00000000  00000+0  00000-0 0  9992
2 59581  75.0000 336.0000 0000000   0.0000 156.0000 15.90815360    15
CTC1_L_00008029-04
1 59582U 22825UX  26070.40831019  .00000000  00000+0  00000-0 0  9998
2 59582  75.0000 336.0000 0000000   0.0000 246.0000 15.90815360    16
CTC1_L_00008030-01
1 59583U 26426AN  26070.40831019  .00000000  00000+0  00000-0 0  9990
2 59583  75.0000 348.0000 0000000   0.0000 348.0000 15.90815360    13
CTC1_L_00008030-02
1 59584U 25779SI  26070.40831019  .00000000  00000+0  00000-0 0  9991
2 59584  75.0000 348.0000 0000000   0.0000  78.0000 15.90815360    14
CTC1_L_00008030-03
1 59585U 25444VO  26070.40831019  .00000000  00000+0  00000-0 0  9991
2 59585  75.0000 348.0000 0000000   0.0000 168.0000 15.90815360    15
CTC1_L_00008030-04
1 59586U 23196ZN  26070.40831019  .00000000  00000+0  00000-0 0  9994
2 59586  75.0000 348.0000 0000000   0.0000 258.0000 15.90815360    16
